[{"OBJECT_NAME":"TECHNOSAT","OBJECT_ID":"2017-042E","EPOCH":"2026-03-09T21:27:07.546176","MEAN_MOTION":15.04288119,"ECCENTRICITY":0.00196291,"INCLINATION":97.4156,"RA_OF_ASC_NODE":230.4429,"ARG_OF_PERICENTER":75.0719,"MEAN_ANOMALY":285.2679,"EPHEMERIS_TYPE":0,"CLASSIFICATION_TYPE":"U","NORAD_CAT_ID":42829,"ELEMENT_SET_NO":999,"REV_AT_EPOCH":47177,"BSTAR":0.00032015047,"MEAN_MOTION_DOT":4.417e-5,"MEAN_MOTION_DDOT":0},{"OBJECT_NAME":"STARLINK-5717","OBJECT_ID":"2023-020BB","EPOCH":"2026-03-09T02:34:56.232192","MEAN_MOTION":15.02578274,"ECCENTRICITY":0.00015161,"INCLINATION":43.0055,"RA_OF_ASC_NODE":354.6667,"ARG_OF_PERICENTER":275.5402,"MEAN_ANOMALY":84.5267,"EPHEMERIS_TYPE":0,"CLASSIFICATION_TYPE":"U","NORAD_CAT_ID":55618,"ELEMENT_SET_NO":999,"REV_AT_EPOCH":16898,"BSTAR":-0.00062012965,"MEAN_MOTION_DOT":-8.58e-5,"MEAN_MOTION_DDOT":0}]
